[
  {
    "OBJECT_NAME": "FOX-1CLIFF (AO-95)",
    "OBJECT_ID": "2018-099N",
    "EPOCH": "2026-06-11T02:42:51.951000",
    "MEAN_MOTION": 15.2658313,
    "ECCENTRICITY": 0.0008613,
    "INCLINATION": 97.4393,
    "RA_OF_ASC_NODE": 222.3819,
    "ARG_OF_PERICENTER": 20.0469,
    "MEAN_ANOMALY": 340.1107,
    "EPHEMERIS_TYPE": 0,
    "CLASSIFICATION_TYPE": "U",
    "NORAD_CAT_ID": 43770,
    "ELEMENT_SET_NO": 999,
    "REV_AT_EPOCH": 41229,
    "BSTAR": 0.00041211,
    "MEAN_MOTION_DOT": 0.00010727,
    "MEAN_MOTION_DDOT": 0
  }
]
